QIANFAN-25              
1 61558U 24185G   25273.83897521  .00000866  00000+0  52215-3 0  9994
2 61558  88.9742  86.4397 0009406 161.2283 198.9247 14.05806352 59260
QIANFAN-26              
1 61559U 24185H   25273.83331080  .00000619  00000+0  60718-3 0  9991
2 61559  88.9746  87.6205 0004318 216.4751 143.6122 13.77751433 58632
QIANFAN-27              
1 61560U 24185J   25273.83518646  .00001631  00000+0  66215-3 0  9991
2 61560  88.9743  85.4916 0008743 154.5981 205.5644 14.27192304 59763
QIANFAN-28              
1 61561U 24185K   25273.85086631  .00003242  00000+0  13064-2 0  9991
2 61561  88.9762  85.4878 0007883 153.4371 206.7229 14.27803197 59779
QIANFAN-29              
1 61562U 24185L   25273.86033501  .00000357  00000+0  53527-3 0  9994
2 61562  88.9722  88.8428 0008307 260.7093  99.3118 13.50973568 57955
QIANFAN-30              
1 61563U 24185M   25273.85416012  .00000355  00000+0  54026-3 0  9999
2 61563  88.9742  88.3407 0005917 240.0551 120.0013 13.49951246 58239
QIANFAN-31              
1 61564U 24185N   25273.88187505  .00000357  00000+0  47823-3 0  9994
2 61564  88.9726  88.2552 0005574 235.4151 124.6479 13.57923701 58279
QIANFAN-32              
1 61565U 24185P   25273.86297568  .00000345  00000+0  51792-3 0  9991
2 61565  88.9785  88.4520 0007507 273.7045  86.3247 13.50703027 58207
